CTC2_L_00554001-01
1 24150U 22469IT  26037.47798611  .00000000  00000+0  00000-0 0  9995
2 24150  98.7000   0.0000 0000000   0.0000   0.0000 14.27529621    18
CTC2_L_00554001-02
1 24151U 24781YN  26037.47798611  .00000000  00000+0  00000-0 0  9995
2 24151  98.7000   0.0000 0000000   0.0000 180.0000 14.27529621    18
CTC2_L_00554002-01
1 24152U 23714XJ  26037.47798611  .00000000  00000+0  00000-0 0  9991
2 24152  98.7000   3.0000 0000000   0.0000   6.0000 14.27529621    19
CTC2_L_00554002-02
1 24153U 23861WT  26037.47798611  .00000000  00000+0  00000-0 0  9995
2 24153  98.7000   3.0000 0000000   0.0000 186.0000 14.27529621    19
CTC2_L_00554003-01
1 24154U 23533BT  26037.47798611  .00000000  00000+0  00000-0 0  9992
2 24154  98.7000   6.0000 0000000   0.0000  12.0000 14.27529621    11
CTC2_L_00554003-02
1 24155U 26563QC  26037.47798611  .00000000  00000+0  00000-0 0  9999
2 24155  98.7000   6.0000 0000000   0.0000 192.0000 14.27529621    11
CTC2_L_00554004-01
1 24156U 26861QQ  26037.47798611  .00000000  00000+0  00000-0 0  9991
2 24156  98.7000   9.0000 0000000   0.0000  18.0000 14.27529621    12
CTC2_L_00554004-02
1 24157U 24281KI  26037.47798611  .00000000  00000+0  00000-0 0  9996
2 24157  98.7000   9.0000 0000000   0.0000 198.0000 14.27529621    12
CTC2_L_00554005-01
1 24158U 22069OH  26037.47798611  .00000000  00000+0  00000-0 0  9999
2 24158  98.7000  12.0000 0000000   0.0000  24.0000 14.27529621    15
CTC2_L_00554005-02
1 24159U 26567JE  26037.47798611  .00000000  00000+0  00000-0 0  9997
2 24159  98.7000  12.0000 0000000   0.0000 204.0000 14.27529621    16
CTC2_L_00554006-01
1 24160U 22896ZS  26037.47798611  .00000000  00000+0  00000-0 0  9990
2 24160  98.7000  15.0000 0000000   0.0000  30.0000 14.27529621    18
CTC2_L_00554006-02
1 24161U 25287AT  26037.47798611  .00000000  00000+0  00000-0 0  9998
2 24161  98.7000  15.0000 0000000   0.0000 210.0000 14.27529621    19
CTC2_L_00554007-01
1 24162U 26554GH  26037.47798611  .00000000  00000+0  00000-0 0  9997
2 24162  98.7000  18.0000 0000000   0.0000  36.0000 14.27529621    19
CTC2_L_00554007-02
1 24163U 26346YE  26037.47798611  .00000000  00000+0  00000-0 0  9997
2 24163  98.7000  18.0000 0000000   0.0000 216.0000 14.27529621    10
CTC2_L_00554008-01
1 24164U 23541OX  26037.47798611  .00000000  00000+0  00000-0 0  9992
2 24164  98.7000  21.0000 0000000   0.0000  42.0000 14.27529621    12
CTC2_L_00554008-02
1 24165U 22650SB  26037.47798611  .00000000  00000+0  00000-0 0  9993
2 24165  98.7000  21.0000 0000000   0.0000 222.0000 14.27529621    13
CTC2_L_00554009-01
1 24166U 25661JG  26037.47798611  .00000000  00000+0  00000-0 0  9999
2 24166  98.7000  24.0000 0000000   0.0000  48.0000 14.27529621    13
CTC2_L_00554009-02
1 24167U 25312PC  26037.47798611  .00000000  00000+0  00000-0 0  9993
2 24167  98.7000  24.0000 0000000   0.0000 228.0000 14.27529621    14
CTC2_L_00554010-01
1 24168U 26710DG  26037.47798611  .00000000  00000+0  00000-0 0  9997
2 24168  98.7000  27.0000 0000000   0.0000  54.0000 14.27529621    15
CTC2_L_00554010-02
1 24169U 22239AX  26037.47798611  .00000000  00000+0  00000-0 0  9990
2 24169  98.7000  27.0000 0000000   0.0000 234.0000 14.27529621    16
CTC2_L_00554011-01
1 24170U 24162YU  26037.47798611  .00000000  00000+0  00000-0 0  9999
2 24170  98.7000  30.0000 0000000   0.0000  60.0000 14.27529621    19
CTC2_L_00554011-02
1 24171U 23236LS  26037.47798611  .00000000  00000+0  00000-0 0  9991
2 24171  98.7000  30.0000 0000000   0.0000 240.0000 14.27529621    10
CTC2_L_00554012-01
1 24172U 23817FE  26037.47798611  .00000000  00000+0  00000-0 0  9997
2 24172  98.7000  33.0000 0000000   0.0000  66.0000 14.27529621    10
CTC2_L_00554012-02
1 24173U 23707IA  26037.47798611  .00000000  00000+0  00000-0 0  9996
2 24173  98.7000  33.0000 0000000   0.0000 246.0000 14.27529621    11
CTC2_L_00554013-01
1 24174U 23934RA  26037.47798611  .00000000  00000+0  00000-0 0  9999
2 24174  98.7000  36.0000 0000000   0.0000  72.0000 14.27529621    12
CTC2_L_00554013-02
1 24175U 22302RF  26037.47798611  .00000000  00000+0  00000-0 0  9998
2 24175  98.7000  36.0000 0000000   0.0000 252.0000 14.27529621    13
CTC2_L_00554014-01
1 24176U 23292YM  26037.47798611  .00000000  00000+0  00000-0 0  9998
2 24176  98.7000  39.0000 0000000   0.0000  78.0000 14.27529621    13
CTC2_L_00554014-02
1 24177U 25179X   26037.47798611  .00000000  00000+0  00000-0 0  9995
2 24177  98.7000  39.0000 0000000   0.0000 258.0000 14.27529621    14
CTC2_L_00554015-01
1 24178U 25238HY  26037.47798611  .00000000  00000+0  00000-0 0  9992
2 24178  98.7000  42.0000 0000000   0.0000  84.0000 14.27529621    16
CTC2_L_00554015-02
1 24179U 24590V   26037.47798611  .00000000  00000+0  00000-0 0  9993
2 24179  98.7000  42.0000 0000000   0.0000 264.0000 14.27529621    17
CTC2_L_00554016-01
1 24180U 26069ZE  26037.47798611  .00000000  00000+0  00000-0 0  9998
2 24180  98.7000  45.0000 0000000   0.0000  90.0000 14.27529621    19
CTC2_L_00554016-02
1 24181U 25687CL  26037.47798611  .00000000  00000+0  00000-0 0  9994
2 24181  98.7000  45.0000 0000000   0.0000 270.0000 14.27529621    10
CTC2_L_00554017-01
1 24182U 24083AM  26037.47798611  .00000000  00000+0  00000-0 0  9994
2 24182  98.7000  48.0000 0000000   0.0000  96.0000 14.27529621    10
CTC2_L_00554017-02
1 24183U 26164TI  26037.47798611  .00000000  00000+0  00000-0 0  9997
2 24183  98.7000  48.0000 0000000   0.0000 276.0000 14.27529621    11
CTC2_L_00554018-01
1 24184U 23802MG  26037.47798611  .00000000  00000+0  00000-0 0  9994
2 24184  98.7000  51.0000 0000000   0.0000 102.0000 14.27529621    14
CTC2_L_00554018-02
1 24185U 26967YU  26037.47798611  .00000000  00000+0  00000-0 0  9990
2 24185  98.7000  51.0000 0000000   0.0000 282.0000 14.27529621    14
CTC2_L_00554019-01
1 24186U 22074AJ  26037.47798611  .00000000  00000+0  00000-0 0  9996
2 24186  98.7000  54.0000 0000000   0.0000 108.0000 14.27529621    15
CTC2_L_00554019-02
1 24187U 26888HG  26037.47798611  .00000000  00000+0  00000-0 0  9994
2 24187  98.7000  54.0000 0000000   0.0000 288.0000 14.27529621    15
CTC2_L_00554020-01
1 24188U 22160NC  26037.47798611  .00000000  00000+0  00000-0 0  9994
2 24188  98.7000  57.0000 0000000   0.0000 114.0000 14.27529621    17
CTC2_L_00554020-02
1 24189U 24571ZH  26037.47798611  .00000000  00000+0  00000-0 0  9993
2 24189  98.7000  57.0000 0000000   0.0000 294.0000 14.27529621    17
CTC2_L_00554021-01
1 24190U 22854GP  26037.47798611  .00000000  00000+0  00000-0 0  9997
2 24190  98.7000  60.0000 0000000   0.0000 120.0000 14.27529621    11
CTC2_L_00554021-02
1 24191U 23365RJ  26037.47798611  .00000000  00000+0  00000-0 0  9996
2 24191  98.7000  60.0000 0000000   0.0000 300.0000 14.27529621    12
CTC2_L_00554022-01
1 24192U 25444OG  26037.47798611  .00000000  00000+0  00000-0 0  9997
2 24192  98.7000  63.0000 0000000   0.0000 126.0000 14.27529621    12
CTC2_L_00554022-02
1 24193U 23524IR  26037.47798611  .00000000  00000+0  00000-0 0  9995
2 24193  98.7000  63.0000 0000000   0.0000 306.0000 14.27529621    13
CTC2_L_00554023-01
1 24194U 23380ZG  26037.47798611  .00000000  00000+0  00000-0 0  9996
2 24194  98.7000  66.0000 0000000   0.0000 132.0000 14.27529621    14
CTC2_L_00554023-02
1 24195U 24996WQ  26037.47798611  .00000000  00000+0  00000-0 0  9991
2 24195  98.7000  66.0000 0000000   0.0000 312.0000 14.27529621    15
CTC2_L_00554024-01
1 24196U 23536JR  26037.47798611  .00000000  00000+0  00000-0 0  9991
2 24196  98.7000  69.0000 0000000   0.0000 138.0000 14.27529621    15
CTC2_L_00554024-02
1 24197U 23594AL  26037.47798611  .00000000  00000+0  00000-0 0  9996
2 24197  98.7000  69.0000 0000000   0.0000 318.0000 14.27529621    16
CTC2_L_00554025-01
1 24198U 24600KP  26037.47798611  .00000000  00000+0  00000-0 0  9996
2 24198  98.7000  72.0000 0000000   0.0000 144.0000 14.27529621    18
CTC2_L_00554025-02
1 24199U 25501TZ  26037.47798611  .00000000  00000+0  00000-0 0  9998
2 24199  98.7000  72.0000 0000000   0.0000 324.0000 14.27529621    19
CTC2_L_00554026-01
1 24200U 26449PD  26037.47798611  .00000000  00000+0  00000-0 0  9993
2 24200  98.7000  75.0000 0000000   0.0000 150.0000 14.27529621    12
CTC2_L_00554026-02
1 24201U 26314UN  26037.47798611  .00000000  00000+0  00000-0 0  9995
2 24201  98.7000  75.0000 0000000   0.0000 330.0000 14.27529621    13
CTC2_L_00554027-01
1 24202U 22168HO  26037.47798611  .00000000  00000+0  00000-0 0  9999
2 24202  98.7000  78.0000 0000000   0.0000 156.0000 14.27529621    13
CTC2_L_00554027-02
1 24203U 25131SZ  26037.47798611  .00000000  00000+0  00000-0 0  9993
2 24203  98.7000  78.0000 0000000   0.0000 336.0000 14.27529621    14
CTC2_L_00554028-01
1 24204U 23803JV  26037.47798611  .00000000  00000+0  00000-0 0  9998
2 24204  98.7000  81.0000 0000000   0.0000 162.0000 14.27529621    16
CTC2_L_00554028-02
1 24205U 22669HB  26037.47798611  .00000000  00000+0  00000-0 0  9998
2 24205  98.7000  81.0000 0000000   0.0000 342.0000 14.27529621    17
CTC2_L_00554029-01
1 24206U 23700KP  26037.47798611  .00000000  00000+0  00000-0 0  9996
2 24206  98.7000  84.0000 0000000   0.0000 168.0000 14.27529621    17
CTC2_L_00554029-02
1 24207U 22861IX  26037.47798611  .00000000  00000+0  00000-0 0  9994
2 24207  98.7000  84.0000 0000000   0.0000 348.0000 14.27529621    18
CTC2_L_00554030-01
1 24208U 25328MK  26037.47798611  .00000000  00000+0  00000-0 0  9996
2 24208  98.7000  87.0000 0000000   0.0000 174.0000 14.27529621    19
CTC2_L_00554030-02
1 24209U 26426TW  26037.47798611  .00000000  00000+0  00000-0 0  9997
2 24209  98.7000  87.0000 0000000   0.0000 354.0000 14.27529621    10
CTC2_L_00554031-01
1 24210U 23345KM  26037.47798611  .00000000  00000+0  00000-0 0  9996
2 24210  98.7000  90.0000 0000000   0.0000 180.0000 14.27529621    13
CTC2_L_00554031-02
1 24211U 22338KJ  26037.47798611  .00000000  00000+0  00000-0 0  9998
2 24211  98.7000  90.0000 0000000   0.0000   0.0000 14.27529621    15
